[{"OBJECT_NAME":"STARLINK-32464","OBJECT_ID":"2024-224B","EPOCH":"2026-03-09T12:59:24.614304","MEAN_MOTION":15.27568956,"ECCENTRICITY":0.00019199,"INCLINATION":42.9933,"RA_OF_ASC_NODE":159.2559,"ARG_OF_PERICENTER":287.9756,"MEAN_ANOMALY":72.0887,"EPHEMERIS_TYPE":0,"CLASSIFICATION_TYPE":"U","NORAD_CAT_ID":62140,"ELEMENT_SET_NO":999,"REV_AT_EPOCH":7239,"BSTAR":0.0012977747,"MEAN_MOTION_DOT":0.00035611,"MEAN_MOTION_DDOT":0},{"OBJECT_NAME":"PEGASUS R\/B","OBJECT_ID":"2007-015B","EPOCH":"2026-03-09T10:58:33.801024","MEAN_MOTION":15.26741121,"ECCENTRICITY":0.00105976,"INCLINATION":97.9168,"RA_OF_ASC_NODE":31.3919,"ARG_OF_PERICENTER":317.6341,"MEAN_ANOMALY":42.4077,"EPHEMERIS_TYPE":0,"CLASSIFICATION_TYPE":"U","NORAD_CAT_ID":31305,"ELEMENT_SET_NO":999,"REV_AT_EPOCH":3383,"BSTAR":0.00044093522,"MEAN_MOTION_DOT":0.00011537,"MEAN_MOTION_DDOT":0}]
